MALLIGYONG-1            
1 58400U 23179A   24239.48188611  .00008514  00000+0  37254-3 0  9997
2 58400  97.3923 125.1455 0000920  43.7534 316.3775 15.22294300 42413
